BEIDOU-3S IGSO-1S       
1 40549U 15019A   26183.80025122 -.00000190  00000+0  00000+0 0  9997
2 40549  49.1798 295.2769 0076860 219.1125 144.2493  1.00680073 41232
NAVSTAR 74 (USA 262)    
1 40730U 15033A   26200.62991453 -.00000036  00000+0  00000+0 0  9993
2 40730  53.9579 265.7473 0115431  30.2916 330.4403  2.00554635 80649
BEIDOU-3S M2S           
1 40748U 15037A   26200.00343427 -.00000093  00000+0  00000+0 0  9993
2 40748  54.8406 300.9506 0009533 256.5664 103.3636  1.86231862 74717
BEIDOU-3S M1S           
1 40749U 15037B   26201.28070029 -.00000099  00000+0  00000+0 0  9996
2 40749  54.8358 300.8934 0002618  62.6171 297.4444  1.86254901 74748
GSAT0206 (GALILEO 10)   
1 40890U 15045B   26200.71931614  .00000054  00000+0  00000+0 0  9995
2 40890  54.9380 220.7054 0002352 327.8216  32.2026  1.70473609 67592
BEIDOU-3S IGSO-2S       
1 40938U 15053A   26201.63657260 -.00000104  00000+0  00000+0 0  9998
2 40938  49.1684 258.3805 0066068 193.6741 168.4716  1.00252378 39694
NAVSTAR 75 (USA 265)    
1 41019U 15062A   26201.18310580 -.00000087  00000+0  00000+0 0  9990
2 41019  56.9818  29.5410 0113063 230.8561 128.1675  2.00567091 78492
GSAT-15                 
1 41028U 15065A   26201.59322860 -.00000259  00000+0  00000+0 0  9993
2 41028   0.1037 263.5712 0003561 177.6248 164.2365  1.00271913 39131
GSAT0209 (GALILEO 12)   
1 41174U 15079A   26200.88772413 -.00000039  00000+0  00000+0 0  9990
2 41174  55.8457 100.3644 0004618 358.4074   1.6290  1.70473671 65332
GSAT0208 (GALILEO 11)   
1 41175U 15079B   26201.10806135 -.00000040  00000+0  00000+0 0  9998
2 41175  55.8443 100.3553 0004268 359.9028   0.1346  1.70473574 65757
IRNSS-1E                
1 41241U 16003A   26201.59020083 -.00000317  00000+0  00000+0 0  9990
2 41241  33.3040  59.2648 0019304 176.2872  27.0964  1.00275464 38414
NAVSTAR 76 (USA 266)    
1 41328U 16007A   26201.27421160 -.00000055  00000+0  00000+0 0  9995
2 41328  55.5443  88.1473 0096648 247.5757 111.4487  2.00575239 76504
COSMOS 2514 [GLONASS-M] 
1 41330U 16008A   26199.72561542 -.00000074  00000+0  00000+0 0  9995
2 41330  65.0007 311.9242 0012428 201.6103 158.3594  2.13102626 81291
BEIDOU-2 IGSO-6         
1 41434U 16021A   26177.11016981 -.00000145  00000+0  00000+0 0  9995
2 41434  60.2385  37.9495 0057558 231.0163 137.2672  1.00258926 37578
IRNSS-1G                
1 41469U 16027A   26201.50142306 -.00000339  00000+0  00000+0 0  9996
2 41469   5.2755  96.7036 0005919  13.1358 138.5881  1.00268307 37513
GSAT0211 (GALILEO 14)   
1 41549U 16030A   26201.23161694  .00000057  00000+0  00000+0 0  9996
2 41549  55.0891 220.7852 0003443 318.9851  41.0285  1.70473740 63235
GSAT0210 (GALILEO 13)   
1 41550U 16030B   26200.90227042  .00000055  00000+0  00000+0 0  9999
2 41550  55.0878 220.7925 0004710 246.5746 113.4149  1.70473957 63222
BEIDOU-2 G7             
1 41586U 16037A   26201.54420071 -.00000355  00000+0  00000+0 0  9997
2 41586   1.8012  69.5510 0006036   0.7364 174.4980  1.00271028  7224
EUTELSAT 117 WEST B     
1 41589U 16038B   26201.38131961 -.00000013  00000+0  00000+0 0  9991
2 41589   0.0059 165.5004 0000168   7.9060 145.0325  1.00270334 36998
GSAT0207 (GALILEO 15)   
1 41859U 16069A   26200.00776295 -.00000035  00000+0  00000+0 0  9992
2 41859  55.5168 100.2055 0004561 339.0572  20.9632  1.70473625 59941
GSAT0212 (GALILEO 16)   
1 41860U 16069B   26201.03433166 -.00000040  00000+0  00000+0 0  9991
2 41860  55.5153 100.1719 0004344  11.9645 348.0834  1.70473722 60217
GSAT0213 (GALILEO 17)   
1 41861U 16069C   26200.81489958 -.00000039  00000+0  00000+0 0  9995
2 41861  55.5171 100.1861 0003903 321.1021  38.9078  1.70474157 60072
GSAT0214 (GALILEO 18)   
1 41862U 16069D   26200.96118468 -.00000040  00000+0  00000+0 0  9999
2 41862  55.5157 100.1745 0003262 333.3186  26.7024  1.70473810 60209
SES-15                  
1 42709U 17026A   26201.49488968  .00000059  00000+0  00000+0 0  9997
2 42709   0.0284 321.9208 0000535 131.9787 253.3687  1.00268526  7766
QZS-2 (MICHIBIKI-2)     
1 42738U 17028A   26200.43631451 -.00000145  00000+0  00000+0 0  9998
2 42738  39.3809 242.6784 0756999 269.6501  84.4438  1.00275667  7951
QZS-3 (MICHIBIKI-3)     
1 42917U 17048A   26201.50090306 -.00000349  00000+0  00000+0 0  9992
2 42917   0.0595 207.1610 0002762 279.4565 119.0100  1.00270069 32592
COSMOS 2522 [GLONASS-M] 
1 42939U 17055A   26199.09397106  .00000060  00000+0  00000+0 0  9991
2 42939  64.0809 190.8323 0010876 240.6480 119.2397  2.13101776 68631
QZS-4 (MICHIBIKI-4)     
1 42965U 17062A   26200.72085770 -.00000359  00000+0  00000+0 0  9994
2 42965  40.0889 343.0703 0747038 268.6623  84.6148  1.00289629 32136
BEIDOU-3 M1             
1 43001U 17069A   26200.88735597 -.00000076  00000+0  00000+0 0  9995
2 43001  56.7214  62.0072 0009178 326.7417  33.2640  1.86231171 59212
BEIDOU-3 M2             
1 43002U 17069B   26200.82637238 -.00000075  00000+0  00000+0 0  9992
2 43002  56.7156  62.0460 0005934 145.8292 214.2725  1.86204093 59203
GSAT0215 (GALILEO 19)   
1 43055U 17079A   26200.27746981  .00000052  00000+0  00000+0 0  9990
2 43055  55.0670 220.6230 0003742 269.1143  90.8812  1.70474412 53533
